TEVEL2-2                
1 63219U 25052K   26068.64848259  .00020339  00000+0  69428-3 0  9991
2 63219  97.3987 324.7700 0004693 105.7930 254.3828 15.30343745 54855
STARLINK-35440          
1 66345U 25253AC  26068.43054704  .00032754  00000+0  11926-2 0  9991
2 66345  42.9994 214.0675 0002321 285.2507  74.8088 15.27631730 20209
